LEMUR-2-PETERG          
1 42841U 17042S   26068.48235713  .00023240  00000+0  81076-3 0  9993
2 42841  97.3980 253.6596 0003700 341.6938  18.4169 15.29611459473171
STARLINK-32249          
1 60444U 24144V   26068.68424351 -.00002050  00000+0 -57154-4 0  9992
2 60444  53.1603 216.7732 0001284  52.5165 307.5953 15.30174225 89352
